TELESAT_L_00002004-08
1 30323U 23730IC  26070.40780093  .00000000  00000+0  00000-0 0  9991
2 30323  48.9000 180.0000 0000000   0.0000 180.0000 12.84107342    15
TELESAT_L_00002004-09
1 30324U 22677YN  26070.40780093  .00000000  00000+0  00000-0 0  9991
2 30324  48.9000 180.0000 0000000   0.0000 200.0000 12.84107342    19
TELESAT_L_00002004-10
1 30325U 24676ZG  26070.40780093  .00000000  00000+0  00000-0 0  9993
2 30325  48.9000 180.0000 0000000   0.0000 220.0000 12.84107342    12
TELESAT_L_00002004-11
1 30326U 22252GI  26070.40780093  .00000000  00000+0  00000-0 0  9992
2 30326  48.9000 180.0000 0000000   0.0000 240.0000 12.84107342    15
TELESAT_L_00002004-12
1 30327U 22256NW  26070.40780093  .00000000  00000+0  00000-0 0  9997
2 30327  48.9000 180.0000 0000000   0.0000 260.0000 12.84107342    18
TELESAT_L_00002004-13
1 30328U 25354BB  26070.40780093  .00000000  00000+0  00000-0 0  9990
2 30328  48.9000 180.0000 0000000   0.0000 280.0000 12.84107342    11
TELESAT_L_00002004-14
1 30329U 26976GT  26070.40780093  .00000000  00000+0  00000-0 0  9992
2 30329  48.9000 180.0000 0000000   0.0000 300.0000 12.84107342    15
TELESAT_L_00002004-15
1 30330U 24709BM  26070.40780093  .00000000  00000+0  00000-0 0  9996
2 30330  48.9000 180.0000 0000000   0.0000 320.0000 12.84107342    19
TELESAT_L_00002004-16
1 30331U 26549NQ  26070.40780093  .00000000  00000+0  00000-0 0  9991
2 30331  48.9000 180.0000 0000000   0.0000 340.0000 12.84107342    12
TELESAT_L_00002004-17
1 30332U 23999AU  26070.40780093  .00000000  00000+0  00000-0 0  9998
2 30332  48.9000 180.0000 0000000   0.0000   0.0000 12.84107342    16
TELESAT_L_00002004-18
1 30333U 25285AS  26070.40780093  .00000000  00000+0  00000-0 0  9999
2 30333  48.9000 180.0000 0000000   0.0000  20.0000 12.84107342    19
TELESAT_L_00002005-01
1 30334U 25837RW  26070.40780093  .00000000  00000+0  00000-0 0  9993
2 30334  48.9000 240.0000 0000000   0.0000  53.3333 12.84107342    15
TELESAT_L_00002005-02
1 30335U 25139DU  26070.40780093  .00000000  00000+0  00000-0 0  9999
2 30335  48.9000 240.0000 0000000   0.0000  73.3333 12.84107342    18
TELESAT_L_00002005-03
1 30336U 25743C   26070.40780093  .00000000  00000+0  00000-0 0  9991
2 30336  48.9000 240.0000 0000000   0.0000  93.3333 12.84107342    11
TELESAT_L_00002005-04
1 30337U 23575OA  26070.40780093  .00000000  00000+0  00000-0 0  9993
2 30337  48.9000 240.0000 0000000   0.0000 113.3333 12.84107342    15
TELESAT_L_00002005-05
1 30338U 22058VG  26070.40780093  .00000000  00000+0  00000-0 0  9999
2 30338  48.9000 240.0000 0000000   0.0000 133.3333 12.84107342    18
TELESAT_L_00002005-06
1 30339U 24498XY  26070.40780093  .00000000  00000+0  00000-0 0  9990
2 30339  48.9000 240.0000 0000000   0.0000 153.3333 12.84107342    11
TELESAT_L_00002005-07
1 30340U 26166NL  26070.40780093  .00000000  00000+0  00000-0 0  9996
2 30340  48.9000 240.0000 0000000   0.0000 173.3333 12.84107342    15
TELESAT_L_00002005-08
1 30341U 22900JE  26070.40780093  .00000000  00000+0  00000-0 0  9999
2 30341  48.9000 240.0000 0000000   0.0000 193.3333 12.84107342    18
TELESAT_L_00002005-09
1 30342U 24196OB  26070.40780093  .00000000  00000+0  00000-0 0  9999
2 30342  48.9000 240.0000 0000000   0.0000 213.3333 12.84107342    12
TELESAT_L_00002005-10
1 30343U 24306PH  26070.40780093  .00000000  00000+0  00000-0 0  9993
2 30343  48.9000 240.0000 0000000   0.0000 233.3333 12.84107342    15
TELESAT_L_00002005-11
1 30344U 25054RD  26070.40780093  .00000000  00000+0  00000-0 0  9995
2 30344  48.9000 240.0000 0000000   0.0000 253.3333 12.84107342    18
TELESAT_L_00002005-12
1 30345U 22589CZ  26070.40780093  .00000000  00000+0  00000-0 0  9996
2 30345  48.9000 240.0000 0000000   0.0000 273.3333 12.84107342    11
TELESAT_L_00002005-13
1 30346U 22088UA  26070.40780093  .00000000  00000+0  00000-0 0  9991
2 30346  48.9000 240.0000 0000000   0.0000 293.3333 12.84107342    14
TELESAT_L_00002005-14
1 30347U 22266W   26070.40780093  .00000000  00000+0  00000-0 0  9990
2 30347  48.9000 240.0000 0000000   0.0000 313.3333 12.84107342    18
TELESAT_L_00002005-15
1 30348U 24497EL  26070.40780093  .00000000  00000+0  00000-0 0  9999
2 30348  48.9000 240.0000 0000000   0.0000 333.3333 12.84107342    11
TELESAT_L_00002005-16
1 30349U 22626GU  26070.40780093  .00000000  00000+0  00000-0 0  9992
2 30349  48.9000 240.0000 0000000   0.0000 353.3333 12.84107342    14
TELESAT_L_00002005-17
1 30350U 25165MA  26070.40780093  .00000000  00000+0  00000-0 0  9995
2 30350  48.9000 240.0000 0000000   0.0000  13.3333 12.84107342    19
TELESAT_L_00002005-18
1 30351U 23229VS  26070.40780093  .00000000  00000+0  00000-0 0  9995
2 30351  48.9000 240.0000 0000000   0.0000  33.3333 12.84107342    12
TELESAT_L_00002006-01
1 30352U 26451UR  26070.40780093  .00000000  00000+0  00000-0 0  9996
2 30352  48.9000 300.0000 0000000   0.0000  66.6667 12.84107342    19
TELESAT_L_00002006-02
1 30353U 22945KV  26070.40780093  .00000000  00000+0  00000-0 0  9991
2 30353  48.9000 300.0000 0000000   0.0000  86.6667 12.84107342    12
TELESAT_L_00002006-03
1 30354U 25070UC  26070.40780093  .00000000  00000+0  00000-0 0  9994
2 30354  48.9000 300.0000 0000000   0.0000 106.6667 12.84107342    16
TELESAT_L_00002006-04
1 30355U 25203LY  26070.40780093  .00000000  00000+0  00000-0 0  9993
2 30355  48.9000 300.0000 0000000   0.0000 126.6667 12.84107342    19
TELESAT_L_00002006-05
1 30356U 22221M   26070.40780093  .00000000  00000+0  00000-0 0  9991
2 30356  48.9000 300.0000 0000000   0.0000 146.6667 12.84107342    12
TELESAT_L_00002006-06
1 30357U 23387XW  26070.40780093  .00000000  00000+0  00000-0 0  9996
2 30357  48.9000 300.0000 0000000   0.0000 166.6667 12.84107342    15
TELESAT_L_00002006-07
1 30358U 22999SB  26070.40780093  .00000000  00000+0  00000-0 0  9995
2 30358  48.9000 300.0000 0000000   0.0000 186.6667 12.84107342    18
TELESAT_L_00002006-08
1 30359U 26335B   26070.40780093  .00000000  00000+0  00000-0 0  9994
2 30359  48.9000 300.0000 0000000   0.0000 206.6667 12.84107342    12
TELESAT_L_00002006-09
1 30360U 22876JW  26070.40780093  .00000000  00000+0  00000-0 0  9992
2 30360  48.9000 300.0000 0000000   0.0000 226.6667 12.84107342    16
TELESAT_L_00002006-10
1 30361U 23242R   26070.40780093  .00000000  00000+0  00000-0 0  9991
2 30361  48.9000 300.0000 0000000   0.0000 246.6667 12.84107342    19
TELESAT_L_00002006-11
1 30362U 24999MG  26070.40780093  .00000000  00000+0  00000-0 0  9992
2 30362  48.9000 300.0000 0000000   0.0000 266.6667 12.84107342    12
TELESAT_L_00002006-12
1 30363U 22526KD  26070.40780093  .00000000  00000+0  00000-0 0  9997
2 30363  48.9000 300.0000 0000000   0.0000 286.6667 12.84107342    15
TELESAT_L_00002006-13
1 30364U 22688TQ  26070.40780093  .00000000  00000+0  00000-0 0  9997
2 30364  48.9000 300.0000 0000000   0.0000 306.6667 12.84107342    19
TELESAT_L_00002006-14
1 30365U 22628LZ  26070.40780093  .00000000  00000+0  00000-0 0  9992
2 30365  48.9000 300.0000 0000000   0.0000 326.6667 12.84107342    12
TELESAT_L_00002006-15
1 30366U 26250AP  26070.40780093  .00000000  00000+0  00000-0 0  9998
2 30366  48.9000 300.0000 0000000   0.0000 346.6667 12.84107342    15
TELESAT_L_00002006-16
1 30367U 24078FV  26070.40780093  .00000000  00000+0  00000-0 0  9995
2 30367  48.9000 300.0000 0000000   0.0000   6.6667 12.84107342    19
TELESAT_L_00002006-17
1 30368U 26307LC  26070.40780093  .00000000  00000+0  00000-0 0  9993
2 30368  48.9000 300.0000 0000000   0.0000  26.6667 12.84107342    12
TELESAT_L_00002006-18
1 30369U 22053GV  26070.40780093  .00000000  00000+0  00000-0 0  9998
2 30369  48.9000 300.0000 0000000   0.0000  46.6667 12.84107342    15
